{"type": "FeatureCollection", "features": [ {"type": "Feature", "properties": {"norad_id": 30434, "name": "FENGYUN 1C DEB", "group": "fengyun-1c-debris", "lat": -50.73146420318727, "lon": 134.0699969705981, "alt_km": 851.9894105831927, "timestamp": "2025-12-04T03:47:54.819633+00:00", "meta": {"OBJECT_NAME": "FENGYUN 1C DEB", "OBJECT_ID": "1999-025AEV", "EPOCH": "2025-12-03T06:02:06.716832", "MEAN_MOTION": 13.90637415, "ECCENTRICITY": 0.0120773, "INCLINATION": 98.9984, "RA_OF_ASC_NODE": 324.3671, "ARG_OF_PERICENTER": 257.2076, "MEAN_ANOMALY": 117.5924, "EPHEMERIS_TYPE": 0, "CLASSIFICATION_TYPE": "U", "NORAD_CAT_ID": 30434, "ELEMENT_SET_NO": 999, "REV_AT_EPOCH": 95575, "BSTAR": 0.00051858, "MEAN_MOTION_DOT": 6.42e-06, "MEAN_MOTION_DDOT": 0}, "tle": {"line1": "1 30434U 99025AEV 25337.25146663  .00000642  00000+0  51858-3 0  9993", "line2": "2 30434  98.9984 324.3671 0120773 257.2076 117.5924 13.90637415955757"}}, "geometry": {"type": "Point", "coordinates": [134.0699969705981, -50.73146420318727]}}, {"type": "Feature", "properties": {"norad_id": 30435, "name": "FENGYUN 1C DEB", "group": "fengyun-1c-debris", "lat": -64.09413628681928, "lon": 125.74977162451547, "alt_km": 1022.8485343918246, "timestamp": "2025-12-04T03:47:54.819643+00:00", "meta": {"OBJECT_NAME": "FENGYUN 1C DEB", "OBJECT_ID": "1999-025AEW", "EPOCH": "2025-12-03T04:37:16.447008", "MEAN_MOTION": 13.79568404, "ECCENTRICITY": 0.0207066, "INCLINATION": 99.0162, "RA_OF_ASC_NODE": 323.9098, "ARG_OF_PERICENTER": 137.7143, "MEAN_ANOMALY": 351.976, "EPHEMERIS_TYPE": 0, "CLASSIFICATION_TYPE": "U", "NORAD_CAT_ID": 30435, "ELEMENT_SET_NO": 999, "REV_AT_EPOCH": 94028, "BSTAR": 0.0020747, "MEAN_MOTION_DOT": 2.472e-05, "MEAN_MOTION_DDOT": 0}, "tle": {"line1": "1 30435U 99025AEW 25337.19255147  .00002472  00000+0  20747-2 0  9990", "line2": "2 30435  99.0162 323.9098 0207066 137.7143 351.9760 13.79568404940286"}}, "geometry": {"type": "Point", "coordinates": [125.74977162451547, -64.09413628681928]}}, {"type": "Feature", "properties": {"norad_id": 30436, "name": "FENGYUN 1C DEB", "group": "fengyun-1c-debris", "lat": 56.511738175463876, "lon": -140.412950805008, "alt_km": 825.8276398718135, "timestamp": "2025-12-04T03:47:54.819653+00:00", "meta": {"OBJECT_NAME": "FENGYUN 1C DEB", "OBJECT_ID": "1999-025AEX", "EPOCH": "2025-12-03T06:09:22.972032", "MEAN_MOTION": 14.22152381, "ECCENTRICITY": 0.0096708, "INCLINATION": 98.4257, "RA_OF_ASC_NODE": 231.6714, "ARG_OF_PERICENTER": 161.6471, "MEAN_ANOMALY": 322.8073, "EPHEMERIS_TYPE": 0, "CLASSIFICATION_TYPE": "U", "NORAD_CAT_ID": 30436, "ELEMENT_SET_NO": 999, "REV_AT_EPOCH": 96302, "BSTAR": 0.0026145, "MEAN_MOTION_DOT": 6.04e-05, "MEAN_MOTION_DDOT": 0}, "tle": {"line1": "1 30436U 99025AEX 25337.25651588  .00006040  00000+0  26145-2 0  9990", "line2": "2 30436  98.4257 231.6714 0096708 161.6471 322.8073 14.22152381963027"}}, "geometry": {"type": "Point", "coordinates": [-140.412950805008, 56.511738175463876]}}, {"type": "Feature", "properties": {"norad_id": 30437, "name": "FENGYUN 1C DEB", "group": "fengyun-1c-debris", "lat": -75.26835616616803, "lon": 33.552717756632916, "alt_km": 635.6634152533152, "timestamp": "2025-12-04T03:47:54.819663+00:00", "meta": {"OBJECT_NAME": "FENGYUN 1C DEB", "OBJECT_ID": "1999-025AEY", "EPOCH": "2025-12-03T12:41:22.087104", "MEAN_MOTION": 14.87387937, "ECCENTRICITY": 0.0035949, "INCLINATION": 98.9223, "RA_OF_ASC_NODE": 356.1555, "ARG_OF_PERICENTER": 130.6688, "MEAN_ANOMALY": 21.9441, "EPHEMERIS_TYPE": 0, "CLASSIFICATION_TYPE": "U", "NORAD_CAT_ID": 30437, "ELEMENT_SET_NO": 999, "REV_AT_EPOCH": 99050, "BSTAR": 0.0029927, "MEAN_MOTION_DOT": 0.00027409, "MEAN_MOTION_DDOT": 0}, "tle": {"line1": "1 30437U 99025AEY 25337.52872786  .00027409  00000+0  29927-2 0  9999", "line2": "2 30437  98.9223 356.1555 0035949 130.6688  21.9441 14.87387937990505"}}, "geometry": {"type": "Point", "coordinates": [33.552717756632916, -75.26835616616803]}}, {"type": "Feature", "properties": {"norad_id": 30438, "name": "FENGYUN 1C DEB", "group": "fengyun-1c-debris", "lat": 15.201787221829324, "lon": 178.06359367074177, "alt_km": 853.0819793277933, "timestamp": "2025-12-04T03:47:54.819673+00:00", "meta": {"OBJECT_NAME": "FENGYUN 1C DEB", "OBJECT_ID": "1999-025AEZ", "EPOCH": "2025-12-03T11:28:35.279040", "MEAN_MOTION": 13.92049693, "ECCENTRICITY": 0.0134401, "INCLINATION": 98.7507, "RA_OF_ASC_NODE": 355.0228, "ARG_OF_PERICENTER": 212.1814, "MEAN_ANOMALY": 147.1092, "EPHEMERIS_TYPE": 0, "CLASSIFICATION_TYPE": "U", "NORAD_CAT_ID": 30438, "ELEMENT_SET_NO": 999, "REV_AT_EPOCH": 95177, "BSTAR": 0.0019404, "MEAN_MOTION_DOT": 2.629e-05, "MEAN_MOTION_DDOT": 0}, "tle": {"line1": "1 30438U 99025AEZ 25337.47818610  .00002629  00000+0  19404-2 0  9996", "line2": "2 30438  98.7507 355.0228 0134401 212.1814 147.1092 13.92049693951772"}}, "geometry": {"type": "Point", "coordinates": [178.06359367074177, 15.201787221829324]}}, {"type": "Feature", "properties": {"norad_id": 30439, "name": "FENGYUN 1C DEB", "group": "fengyun-1c-debris", "lat": -62.199893940033654, "lon": 7.109517708656035, "alt_km": 858.3169031655643, "timestamp": "2025-12-04T03:47:54.819684+00:00", "meta": {"OBJECT_NAME": "FENGYUN 1C DEB", "OBJECT_ID": "1999-025AFA", "EPOCH": "2025-12-03T11:47:29.766336", "MEAN_MOTION": 14.08815598, "ECCENTRICITY": 0.0039245, "INCLINATION": 98.7502, "RA_OF_ASC_NODE": 349.4776, "ARG_OF_PERICENTER": 3.1092, "MEAN_ANOMALY": 153.0979, "EPHEMERIS_TYPE": 0, "CLASSIFICATION_TYPE": "U", "NORAD_CAT_ID": 30439, "ELEMENT_SET_NO": 999, "REV_AT_EPOCH": 96661, "BSTAR": 0.00069314, "MEAN_MOTION_DOT": 1.162e-05, "MEAN_MOTION_DDOT": 0}, "tle": {"line1": "1 30439U 99025AFA 25337.49131674  .00001162  00000+0  69314-3 0  9994", "line2": "2 30439  98.7502 349.4776 0039245   3.1092 153.0979 14.08815598966611"}}, "geometry": {"type": "Point", "coordinates": [7.109517708656035, -62.199893940033654]}}, {"type": "Feature", "properties": {"norad_id": 30441, "name": "FENGYUN 1C DEB", "group": "fengyun-1c-debris", "lat": -4.83924211939843, "lon": -112.93514874954701, "alt_km": 986.6930424864822, "timestamp": "2025-12-04T03:47:54.819694+00:00", "meta": {"OBJECT_NAME": "FENGYUN 1C DEB", "OBJECT_ID": "1999-025AFC", "EPOCH": "2025-12-03T11:11:50.023680", "MEAN_MOTION": 13.77659216, "ECCENTRICITY": 0.01835, "INCLINATION": 99.1354, "RA_OF_ASC_NODE": 67.1799, "ARG_OF_PERICENTER": 282.3617, "MEAN_ANOMALY": 75.705, "EPHEMERIS_TYPE": 0, "CLASSIFICATION_TYPE": "U", "NORAD_CAT_ID": 30441, "ELEMENT_SET_NO": 999, "REV_AT_EPOCH": 94742, "BSTAR": 0.00078626, "MEAN_MOTION_DOT": 8.45e-06, "MEAN_MOTION_DDOT": 0}, "tle": {"line1": "1 30441U 99025AFC 25337.46655120  .00000845  00000+0  78626-3 0  9994", "line2": "2 30441  99.1354  67.1799 0183500 282.3617  75.7050 13.77659216947427"}}, "geometry": {"type": "Point", "coordinates": [-112.93514874954701, -4.83924211939843]}}, {"type": "Feature", "properties": {"norad_id": 30442, "name": "FENGYUN 1C DEB", "group": "fengyun-1c-debris", "lat": 71.31159554332353, "lon": -80.89869833711273, "alt_km": 825.1024241521854, "timestamp": "2025-12-04T03:47:54.819704+00:00", "meta": {"OBJECT_NAME": "FENGYUN 1C DEB", "OBJECT_ID": "1999-025AFD", "EPOCH": "2025-12-03T05:26:48.977664", "MEAN_MOTION": 14.28446704, "ECCENTRICITY": 0.0054573, "INCLINATION": 98.8673, "RA_OF_ASC_NODE": 70.6702, "ARG_OF_PERICENTER": 315.2617, "MEAN_ANOMALY": 44.4168, "EPHEMERIS_TYPE": 0, "CLASSIFICATION_TYPE": "U", "NORAD_CAT_ID": 30442, "ELEMENT_SET_NO": 999, "REV_AT_EPOCH": 97026, "BSTAR": 0.0027757, "MEAN_MOTION_DOT": 7.018e-05, "MEAN_MOTION_DDOT": 0}, "tle": {"line1": "1 30442U 99025AFD 25337.22695576  .00007018  00000+0  27757-2 0  9995", "line2": "2 30442  98.8673  70.6702 0054573 315.2617  44.4168 14.28446704970268"}}, "geometry": {"type": "Point", "coordinates": [-80.89869833711273, 71.31159554332353]}}, {"type": "Feature", "properties": {"norad_id": 30443, "name": "FENGYUN 1C DEB", "group": "fengyun-1c-debris", "lat": 19.548841334378462, "lon": -78.13166149687297, "alt_km": 750.383668312923, "timestamp": "2025-12-04T03:47:54.819714+00:00", "meta": {"OBJECT_NAME": "FENGYUN 1C DEB", "OBJECT_ID": "1999-025AFE", "EPOCH": "2025-12-02T19:56:48.787008", "MEAN_MOTION": 14.3655413, "ECCENTRICITY": 0.00286306, "INCLINATION": 98.8474, "RA_OF_ASC_NODE": 283.6759, "ARG_OF_PERICENTER": 6.2925, "MEAN_ANOMALY": 353.8615, "EPHEMERIS_TYPE": 0, "CLASSIFICATION_TYPE": "U", "NORAD_CAT_ID": 30443, "ELEMENT_SET_NO": 999, "REV_AT_EPOCH": 97291, "BSTAR": 0.003353624, "MEAN_MOTION_DOT": 9.866e-05, "MEAN_MOTION_DDOT": 0}, "tle": {"line1": "1 30443U 99025AFE 25336.83112022  .00009866  00000+0  33536-2 0  9997", "line2": "2 30443  98.8474 283.6759 0028630   6.2925 353.8615 14.36554130972910"}}, "geometry": {"type": "Point", "coordinates": [-78.13166149687297, 19.548841334378462]}}, {"type": "Feature", "properties": {"norad_id": 30445, "name": "FENGYUN 1C DEB", "group": "fengyun-1c-debris", "lat": -9.60008162819402, "lon": -69.37562522320569, "alt_km": 688.578042350241, "timestamp": "2025-12-04T03:47:54.819724+00:00", "meta": {"OBJECT_NAME": "FENGYUN 1C DEB", "OBJECT_ID": "1999-025AFG", "EPOCH": "2025-12-03T07:57:03.085344", "MEAN_MOTION": 14.48651015, "ECCENTRICITY": 0.0106498, "INCLINATION": 98.8334, "RA_OF_ASC_NODE": 288.2524, "ARG_OF_PERICENTER": 46.3746, "MEAN_ANOMALY": 314.6219, "EPHEMERIS_TYPE": 0, "CLASSIFICATION_TYPE": "U", "NORAD_CAT_ID": 30445, "ELEMENT_SET_NO": 999, "REV_AT_EPOCH": 99048, "BSTAR": 0.0010747, "MEAN_MOTION_DOT": 4.297e-05, "MEAN_MOTION_DDOT": 0}, "tle": {"line1": "1 30445U 99025AFG 25337.33128571  .00004297  00000+0  10747-2 0  9993", "line2": "2 30445  98.8334 288.2524 0106498  46.3746 314.6219 14.48651015990483"}}, "geometry": {"type": "Point", "coordinates": [-69.37562522320569, -9.60008162819402]}}]}